H1 CPF  1  DLR 2021 09 12 10  7552 technosat            
H2  1704205 6203    42829 2021 09 12 00 00 00 2021 09 19 00 00 00    60 1 1  0 0 0
H9
10 0 59473  57600.000000  0       1808857.208       5800834.067       3402307.381
10 0 59473  57660.000000  0       1960884.830       5969409.890       3003479.812
10 0 59473  57720.000000  0       2105980.714       6111445.937       2591861.356
10 0 59473  57780.000000  0       2243294.714       6226400.040       2169202.548
10 0 59473  57840.000000  0       2372005.656       6313853.070       1737302.206
10 0 59473  57900.000000  0       2491326.009       6373510.581       1297999.468
10 0 59473  57960.000000  0       2600506.402       6405203.861        853165.719
10 0 59473  58020.000000  0       2698839.987       6408890.406        404696.340
10 0 59473  58080.000000  0       2785666.625       6384653.777        -45497.656
10 0 59473  58140.000000  0       2860376.858       6332702.856       -495498.105
10 0 59473  58200.000000  0       2922415.640       6253370.427       -943388.218
10 0 59473  58260.000000  0       2971285.779       6147111.136      -1387261.046
10 0 59473  58320.000000  0       3006551.083       6014498.899      -1825227.903
10 0 59473  58380.000000  0       3027839.206       5856223.729      -2255426.709
10 0 59473  58440.000000  0       3034844.173       5673087.967      -2676030.185
10 0 59473  58500.000000  0       3027328.538       5466001.970      -3085253.872
10 0 59473  58560.000000  0       3005125.165       5235979.244      -3481363.872
10 0 59473  58620.000000  0       2968138.634       4984131.134      -3862684.260
10 0 59473  58680.000000  0       2916346.292       4711661.153      -4227604.178
10 0 59473  58740.000000  0       2849798.916       4419858.895      -4574584.642
10 0 59473  58800.000000  0       2768620.984       4110093.576      -4902164.921
10 0 59473  58860.000000  0       2673010.621       3783807.311      -5208968.499
10 0 59473  58920.000000  0       2563239.188       3442508.141      -5493708.683
10 0 59473  58980.000000  0       2439650.503       3087762.775      -5755193.775
10 0 59473  59040.000000  0       2302659.684       2721189.166      -5992331.762
10 0 59473  59100.000000  0       2152751.630       2344448.940      -6204134.547
10 0 59473  59160.000000  0       1990479.195       1959239.733      -6389721.681
10 0 59473  59220.000000  0       1816461.086       1567287.497      -6548323.644
10 0 59473  59280.000000  0       1631379.460       1170338.755      -6679284.710
10 0 59473  59340.000000  0       1435977.189        770152.843      -6782065.349
10 0 59473  59400.000000  0       1231054.807        368494.206      -6856244.202
10 0 59473  59460.000000  0       1017467.155        -32875.326      -6901519.563
10 0 59473  59520.000000  0        796119.790       -432204.194      -6917710.331
10 0 59473  59580.000000  0        567965.157       -827758.584      -6904756.491
10 0 59473  59640.000000  0        333998.552      -1217829.761      -6862719.197
10 0 59473  59700.000000  0         95253.874      -1600741.239      -6791780.385
10 0 59473  59760.000000  0       -147200.833      -1974855.764      -6692242.054
10 0 59473  59820.000000  0       -392268.107      -2338582.217      -6564525.119
10 0 59473  59880.000000  0       -638825.958      -2690382.329      -6409167.695
10 0 59473  59940.000000  0       -885732.890      -3028777.095      -6226822.895
10 0 59473  60000.000000  0      -1131833.037      -3352352.868      -6018256.252
10 0 59473  60060.000000  0      -1375961.450      -3659767.229      -5784342.756
10 0 59473  60120.000000  0      -1616949.501      -3949754.557      -5526063.458
10 0 59473  60180.000000  0      -1853630.375      -4221131.332      -5244501.641
10 0 59473  60240.000000  0      -2084844.653      -4472801.095      -4940838.538
10 0 59473  60300.000000  0      -2309445.940      -4703759.007      -4616348.604
10 0 59473  60360.000000  0      -2526306.487      -4913096.003      -4272394.382
10 0 59473  60420.000000  0      -2734322.792      -5100002.511      -3910420.980
10 0 59473  60480.000000  0      -2932421.138      -5263771.746      -3531950.205
10 0 59473  60540.000000  0      -3119563.082      -5403802.575      -3138574.336
10 0 59473  60600.000000  0      -3294750.835      -5519601.899      -2731949.557
10 0 59473  60660.000000  0      -3457032.531      -5610786.556      -2313789.083
10 0 59473  60720.000000  0      -3605507.333      -5677084.721      -1885855.974
10 0 59473  60780.000000  0      -3739330.331      -5718336.779      -1449955.687
10 0 59473  60840.000000  0      -3857717.202      -5734495.670      -1007928.401
10 0 59473  60900.000000  0      -3959948.607      -5725626.700       -561641.146
10 0 59473  60960.000000  0      -4045374.287      -5691906.798       -112979.812
10 0 59473  61020.000000  0      -4113416.869      -5633623.266        336158.955
10 0 59473  61080.000000  0      -4163575.334      -5551171.999        783875.936
10 0 59473  61140.000000  0      -4195428.123      -5445055.166       1228277.553
10 0 59473  61200.000000  0      -4208635.856      -5315878.370       1667484.069
10 0 59473  61260.000000  0      -4202943.633      -5164347.304       2099637.678
10 0 59473  61320.000000  0      -4178182.940      -4991263.973       2522910.482
10 0 59473  61380.000000  0      -4134273.149      -4797522.478       2935512.320
10 0 59473  61440.000000  0      -4071222.604      -4584104.399       3335698.425
10 0 59473  61500.000000  0      -3989129.255      -4352073.782       3721776.874
10 0 59473  61560.000000  0      -3888180.868      -4102571.765       4092115.791
10 0 59473  61620.000000  0      -3768654.770      -3836810.841       4445150.247
10 0 59473  61680.000000  0      -3630917.177      -3556068.837       4779388.789
10 0 59473  61740.000000  0      -3475422.128      -3261682.691       5093419.621
10 0 59473  61800.000000  0      -3302709.989      -2955042.008       5385916.464
10 0 59473  61860.000000  0      -3113405.550      -2637582.455       5655644.000
10 0 59473  61920.000000  0      -2908215.730      -2310779.031       5901462.960
10 0 59473  61980.000000  0      -2687926.908      -1976139.190       6122334.814
10 0 59473  62040.000000  0      -2453401.894      -1635195.867       6317326.042
10 0 59473  62100.000000  0      -2205576.515      -1289500.416       6485612.016
10 0 59473  62160.000000  0      -1945455.773       -940615.473       6626480.339
10 0 59473  62220.000000  0      -1674109.699       -590107.880       6739333.612
10 0 59473  62280.000000  0      -1392668.986       -239541.776       6823691.726
10 0 59473  62340.000000  0      -1102320.400        109528.258       6879193.879
10 0 59473  62400.000000  0       -804301.837        455564.049       6905600.154
10 0 59473  62460.000000  0       -499897.098        797050.589       6902792.572
10 0 59473  62520.000000  0       -190430.423       1132502.636       6870775.679
10 0 59473  62580.000000  0        122739.200       1460471.161       6809676.673
10 0 59473  62640.000000  0        438223.976       1779549.650       6719745.042
10 0 59473  62700.000000  0        754613.408       2088380.145       6601351.633
10 0 59473  62760.000000  0       1070480.541       2385659.020       6454987.326
10 0 59473  62820.000000  0       1384388.359       2670142.540       6281261.239
10 0 59473  62880.000000  0       1694896.287       2940652.160       6080898.475
10 0 59473  62940.000000  0       2000566.808       3196079.579       5854737.392
10 0 59473  63000.000000  0       2299972.161       3435391.458       5603726.380
10 0 59473  63060.000000  0       2591701.122       3657633.834       5328920.168
10 0 59473  63120.000000  0       2874365.801       3861936.158       5031475.561
10 0 59473  63180.000000  0       3146608.343       4047514.867       4712646.682
10 0 59473  63240.000000  0       3407107.499       4213676.548       4373779.925
10 0 59473  63300.000000  0       3654585.161       4359820.787       4016308.463
10 0 59473  63360.000000  0       3887812.773       4485442.623       3641746.431
10 0 59473  63420.000000  0       4105617.909       4590134.643       3251682.542
10 0 59473  63480.000000  0       4306890.393       4673588.289       2847773.017
10 0 59473  63540.000000  0       4490587.873       4735594.748       2431734.491
10 0 59473  63600.000000  0       4655741.320       4776045.522       2005336.674
10 0 59473  63660.000000  0       4801460.274       4794932.395       1570394.667
10 0 59473  63720.000000  0       4926937.828       4792346.938       1128761.031
10 0 59473  63780.000000  0       5031455.156       4768479.472        682317.505
10 0 59473  63840.000000  0       5114385.488       4723617.505        232966.592
10 0 59473  63900.000000  0       5175197.640       4658143.648       -217376.888
10 0 59473  63960.000000  0       5213459.106       4572533.079       -666794.269
10 0 59473  64020.000000  0       5228838.656       4467350.567      -1113371.537
10 0 59473  64080.000000  0       5221108.464       4343247.037      -1555207.793
10 0 59473  64140.000000  0       5190145.721       4200955.733      -1990423.645
10 0 59473  64200.000000  0       5135933.714       4041287.963      -2417169.487
10 0 59473  64260.000000  0       5058562.340       3865128.495      -2833633.584
10 0 59473  64320.000000  0       4958228.104       3673430.636      -3238049.934
10 0 59473  64380.000000  0       4835233.585       3467211.044      -3628705.911
10 0 59473  64440.000000  0       4689986.358       3247544.255      -4003949.601
10 0 59473  64500.000000  0       4522997.430       3015556.958      -4362196.818
10 0 59473  64560.000000  0       4334879.186       2772422.053      -4701937.729
10 0 59473  64620.000000  0       4126342.856       2519352.586      -5021743.079
10 0 59473  64680.000000  0       3898195.554       2257595.589      -5320270.020
10 0 59473  64740.000000  0       3651336.854       1988425.825      -5596267.549
99
